STARLINK-36846          
1 67894U 26035R   26062.16668981 -.00874009  26293-3 -14926-2 0  9990
2 67894  97.2767 353.9981 0001231 123.1770 124.6848 16.02552218  2704
STARLINK-36866          
1 67895U 26035S   26062.16668981 -.00921386  29044-3 -15619-2 0  9999
2 67895  97.2764 353.9995 0001018 114.9909 136.3849 16.02686945  2708
STARLINK-36877          
1 67896U 26035T   26062.16668981 -.00811980  22890-3 -13991-2 0  9991
2 67896  97.2766 353.9962 0001126  72.7580 171.2401 16.02390916  2703
STARLINK-36870          
1 67897U 26035U   26062.16668981 -.00945559  30518-3 -15914-2 0  9995
2 67897  97.2761 354.0009 0001119  80.7921 174.6329 16.02812244  2702
STARLINK-36810          
1 67898U 26035V   26062.16668981 -.00917792  28912-3 -15346-2 0  9998
2 67898  97.2759 354.0021 0001506 136.3059 122.3159 16.02918388  2701
STARLINK-36878          
1 67899U 26035W   26062.16668981 -.00953242  31090-3 -15761-2 0  9991
2 67899  97.2756 354.0050 0001043  82.6593 182.2820 16.03115753  2709
STARLINK-36361          
1 67900U 26035X   26062.16668981 -.00938571  30251-3 -15410-2 0  9991
2 67900  97.2756 354.0064 0000953  90.0775 178.3307 16.03233165  2705
STARLINK-36336          
1 67901U 26035Y   26062.16668981 -.00960261  31679-3 -15468-2 0  9991
2 67901  97.2758 354.0112 0001153 145.3675 133.5230 16.03558295  2755
STARLINK-36876          
1 67902U 26035Z   26062.16668981 -.00948375  30869-3 -15493-2 0  9992
2 67902  97.2760 354.0085 0001462 131.8270 139.5959 16.03317693  2706
STARLINK-36257          
1 67903U 26035AA  26062.16668981 -.00950651  31046-3 -15433-2 0  9995
2 67903  97.2757 354.0089 0001089 122.8158 151.7697 16.03425614  2750
